[
  {
    "CCSDS_OMM_VERS": "2.0",
    "COMMENT": "GENERATED VIA SPACE-TRACK.ORG API",
    "CREATION_DATE": "2024-03-18T14:26:17",
    "ORIGINATOR": "18 SPCS",
    "OBJECT_NAME": "JASON 3",
    "OBJECT_ID": "2016-002A",
    "CENTER_NAME": "EARTH",
    "REF_FRAME": "TEME",
    "TIME_SYSTEM": "UTC",
    "MEAN_ELEMENT_THEORY": "SGP4",
    "EPOCH": "2024-03-18T11:09:06.325920",
    "MEAN_MOTION": "12.80929444",
    "ECCENTRICITY": "0.00082170",
    "INCLINATION": "66.0433",
    "RA_OF_ASC_NODE": "39.7663",
    "ARG_OF_PERICENTER": "275.2471",
    "MEAN_ANOMALY": "84.7607",
    "EPHEMERIS_TYPE": "0",
    "CLASSIFICATION_TYPE": "U",
    "NORAD_CAT_ID": "41240",
    "ELEMENT_SET_NO": "999",
    "REV_AT_EPOCH": "38202",
    "BSTAR": "0.00008671300000",
    "MEAN_MOTION_DOT": "-0.00000041",
    "MEAN_MOTION_DDOT": "0.0000000000000",
    "SEMIMAJOR_AXIS": "7715.872",
    "PERIOD": "112.418",
    "APOAPSIS": "1344.078",
    "PERIAPSIS": "1331.397",
    "OBJECT_TYPE": "PAYLOAD",
    "RCS_SIZE": "LARGE",
    "COUNTRY_CODE": "US",
    "LAUNCH_DATE": "2016-01-17",
    "SITE": "AFWTR",
    "DECAY_DATE": null,
    "FILE": "4231303",
    "GP_ID": "252034642",
    "TLE_LINE0": "0 JASON 3",
    "TLE_LINE1": "1 41240U 16002A   24078.46465655 -.00000041  00000-0  86713-4 0  9997",
    "TLE_LINE2": "2 41240  66.0433  39.7663 0008217 275.2471  84.7607 12.80929444382025"
  },
  {
    "CCSDS_OMM_VERS": "2.0",
    "COMMENT": "GENERATED VIA SPACE-TRACK.ORG API",
    "CREATION_DATE": "2024-03-18T17:21:26",
    "ORIGINATOR": "18 SPCS",
    "OBJECT_NAME": "JASON 3",
    "OBJECT_ID": "2016-002A",
    "CENTER_NAME": "EARTH",
    "REF_FRAME": "TEME",
    "TIME_SYSTEM": "UTC",
    "MEAN_ELEMENT_THEORY": "SGP4",
    "EPOCH": "2024-03-18T13:01:32.089728",
    "MEAN_MOTION": "12.80929447",
    "ECCENTRICITY": "0.00082160",
    "INCLINATION": "66.0433",
    "RA_OF_ASC_NODE": "39.6041",
    "ARG_OF_PERICENTER": "275.2526",
    "MEAN_ANOMALY": "84.7552",
    "EPHEMERIS_TYPE": "0",
    "CLASSIFICATION_TYPE": "U",
    "NORAD_CAT_ID": "41240",
    "ELEMENT_SET_NO": "999",
    "REV_AT_EPOCH": "38189",
    "BSTAR": "0.00008721200000",
    "MEAN_MOTION_DOT": "-0.00000041",
    "MEAN_MOTION_DDOT": "0.0000000000000",
    "SEMIMAJOR_AXIS": "7715.872",
    "PERIOD": "112.418",
    "APOAPSIS": "1344.077",
    "PERIAPSIS": "1331.398",
    "OBJECT_TYPE": "PAYLOAD",
    "RCS_SIZE": "LARGE",
    "COUNTRY_CODE": "US",
    "LAUNCH_DATE": "2016-01-17",
    "SITE": "AFWTR",
    "DECAY_DATE": null,
    "FILE": "4231680",
    "GP_ID": "252058821",
    "TLE_LINE0": "0 JASON 3",
    "TLE_LINE1": "1 41240U 16002A   24078.54273252 -.00000041  00000-0  87212-4 0  9991",
    "TLE_LINE2": "2 41240  66.0433  39.6041 0008216 275.2526  84.7552 12.80929447381890"
  },
  {
    "CCSDS_OMM_VERS": "2.0",
    "COMMENT": "GENERATED VIA SPACE-TRACK.ORG API",
    "CREATION_DATE": "2024-03-19T04:43:27",
    "ORIGINATOR": "18 SPCS",
    "OBJECT_NAME": "JASON 3",
    "OBJECT_ID": "2016-002A",
    "CENTER_NAME": "EARTH",
    "REF_FRAME": "TEME",
    "TIME_SYSTEM": "UTC",
    "MEAN_ELEMENT_THEORY": "SGP4",
    "EPOCH": "2024-03-18T22:23:40.907040",
    "MEAN_MOTION": "12.80929479",
    "ECCENTRICITY": "0.00082170",
    "INCLINATION": "66.0433",
    "RA_OF_ASC_NODE": "38.7934",
    "ARG_OF_PERICENTER": "275.1931",
    "MEAN_ANOMALY": "84.8147",
    "EPHEMERIS_TYPE": "0",
    "CLASSIFICATION_TYPE": "U",
    "NORAD_CAT_ID": "41240",
    "ELEMENT_SET_NO": "999",
    "REV_AT_EPOCH": "38194",
    "BSTAR": "0.00008845500000",
    "MEAN_MOTION_DOT": "-0.00000041",
    "MEAN_MOTION_DDOT": "0.0000000000000",
    "SEMIMAJOR_AXIS": "7715.872",
    "PERIOD": "112.418",
    "APOAPSIS": "1344.077",
    "PERIAPSIS": "1331.397",
    "OBJECT_TYPE": "PAYLOAD",
    "RCS_SIZE": "LARGE",
    "COUNTRY_CODE": "US",
    "LAUNCH_DATE": "2016-01-17",
    "SITE": "AFWTR",
    "DECAY_DATE": null,
    "FILE": "4232179",
    "GP_ID": "252098581",
    "TLE_LINE0": "0 JASON 3",
    "TLE_LINE1": "1 41240U 16002A   24078.93311235 -.00000041  00000-0  88455-4 0  9998",
    "TLE_LINE2": "2 41240  66.0433  38.7934 0008217 275.1931  84.8147 12.80929479381943"
  },
  {
    "CCSDS_OMM_VERS": "2.0",
    "COMMENT": "GENERATED VIA SPACE-TRACK.ORG API",
    "CREATION_DATE": "2024-03-20T01:36:54",
    "ORIGINATOR": "18 SPCS",
    "OBJECT_NAME": "JASON 3",
    "OBJECT_ID": "2016-002A",
    "CENTER_NAME": "EARTH",
    "REF_FRAME": "TEME",
    "TIME_SYSTEM": "UTC",
    "MEAN_ELEMENT_THEORY": "SGP4",
    "EPOCH": "2024-03-19T11:30:41.252832",
    "MEAN_MOTION": "12.80929529",
    "ECCENTRICITY": "0.00082120",
    "INCLINATION": "66.0435",
    "RA_OF_ASC_NODE": "37.6583",
    "ARG_OF_PERICENTER": "275.2288",
    "MEAN_ANOMALY": "84.7790",
    "EPHEMERIS_TYPE": "0",
    "CLASSIFICATION_TYPE": "U",
    "NORAD_CAT_ID": "41240",
    "ELEMENT_SET_NO": "999",
    "REV_AT_EPOCH": "38201",
    "BSTAR": "0.00011291000000",
    "MEAN_MOTION_DOT": "-0.00000035",
    "MEAN_MOTION_DDOT": "0.0000000000000",
    "SEMIMAJOR_AXIS": "7715.872",
    "PERIOD": "112.418",
    "APOAPSIS": "1344.073",
    "PERIAPSIS": "1331.401",
    "OBJECT_TYPE": "PAYLOAD",
    "RCS_SIZE": "LARGE",
    "COUNTRY_CODE": "US",
    "LAUNCH_DATE": "2016-01-17",
    "SITE": "AFWTR",
    "DECAY_DATE": null,
    "FILE": "4233772",
    "GP_ID": "252166306",
    "TLE_LINE0": "0 JASON 3",
    "TLE_LINE1": "1 41240U 16002A   24079.47964413 -.00000035  00000-0  11291-3 0  9996",
    "TLE_LINE2": "2 41240  66.0435  37.6583 0008212 275.2288  84.7790 12.80929529382012"
  },
  {
    "CCSDS_OMM_VERS": "2.0",
    "COMMENT": "GENERATED VIA SPACE-TRACK.ORG API",
    "CREATION_DATE": "2024-03-20T00:16:17",
    "ORIGINATOR": "18 SPCS",
    "OBJECT_NAME": "JASON 3",
    "OBJECT_ID": "2016-002A",
    "CENTER_NAME": "EARTH",
    "REF_FRAME": "TEME",
    "TIME_SYSTEM": "UTC",
    "MEAN_ELEMENT_THEORY": "SGP4",
    "EPOCH": "2024-03-19T20:52:50.070144",
    "MEAN_MOTION": "12.80929519",
    "ECCENTRICITY": "0.00082120",
    "INCLINATION": "66.0435",
    "RA_OF_ASC_NODE": "36.8476",
    "ARG_OF_PERICENTER": "275.1869",
    "MEAN_ANOMALY": "84.8209",
    "EPHEMERIS_TYPE": "0",
    "CLASSIFICATION_TYPE": "U",
    "NORAD_CAT_ID": "41240",
    "ELEMENT_SET_NO": "999",
    "REV_AT_EPOCH": "38220",
    "BSTAR": "0.00006061400000",
    "MEAN_MOTION_DOT": "-0.00000047",
    "MEAN_MOTION_DDOT": "0.0000000000000",
    "SEMIMAJOR_AXIS": "7715.872",
    "PERIOD": "112.418",
    "APOAPSIS": "1344.073",
    "PERIAPSIS": "1331.401",
    "OBJECT_TYPE": "PAYLOAD",
    "RCS_SIZE": "LARGE",
    "COUNTRY_CODE": "US",
    "LAUNCH_DATE": "2016-01-17",
    "SITE": "AFWTR",
    "DECAY_DATE": null,
    "FILE": "4233138",
    "GP_ID": "252134279",
    "TLE_LINE0": "0 JASON 3",
    "TLE_LINE1": "1 41240U 16002A   24079.87002396 -.00000047  00000-0  60614-4 0  9990",
    "TLE_LINE2": "2 41240  66.0435  36.8476 0008212 275.1869  84.8209 12.80929519382204"
  }
]